start=new Date('2022-12-13T00:00:00.000Z').valueOf();
sats=[{"MEAN_MOTION_DDOT":"0.0000000000000","TIME_SYSTEM":"UTC","REF_FRAME":"TEME","BSTAR":"0.00005344800000","CENTER_NAME":"EARTH","TLE_LINE2":"2 52300  53.2170  10.4811 0002392  31.7874 328.3262 15.08844528 37114","ELEMENT_SET_NO":"999","MEAN_MOTION":"15.08844528","PERIAPSIS":"538.077","ARG_OF_PERICENTER":"31.7874","INCLINATION":"53.2170","PERIOD":"95.437","MEAN_ANOMALY":"328.3262","MEAN_MOTION_DOT":"0.00000562","COUNTRY_CODE":"US","SEMIMAJOR_AXIS":"6917.867","ECCENTRICITY":"0.00023920","REV_AT_EPOCH":"3711","RA_OF_ASC_NODE":"10.4811","OBJECT_ID":"2022-041AR","EPHEMERIS_TYPE":"0","SITE":"AFETR","RCS_SIZE":"LARGE","FILE":"3694391","NORAD_CAT_ID":"52300","LAUNCH_DATE":"2022-04-21","OBJECT_NAME":"STARLINK-3769","MEAN_ELEMENT_THEORY":"SGP4","DECAY_DATE":null,"TLE_LINE1":"1 52300U 22041AR  22346.54371061  .00000562  00000-0  53448-4 0  9994","EPOCH":"2022-12-12T13:02:56.596704","OBJECT_TYPE":"PAYLOAD","APOAPSIS":"541.386","CLASSIFICATION_TYPE":"U","GP_ID":"220176922"},{"RCS_SIZE":"LARGE","SITE":"AFETR","EPHEMERIS_TYPE":"0","OBJECT_ID":"2022-041AS","LAUNCH_DATE":"2022-04-21","OBJECT_NAME":"STARLINK-3768","NORAD_CAT_ID":"52301","FILE":"3694071","TLE_LINE1":"1 52301U 22041AS  22346.36338910  .00000040  00000-0  20606-4 0  9992","DECAY_DATE":null,"MEAN_ELEMENT_THEORY":"SGP4","GP_ID":"220171200","CLASSIFICATION_TYPE":"U","APOAPSIS":"541.458","OBJECT_TYPE":"PAYLOAD","EPOCH":"2022-12-12T08:43:16.818240","BSTAR":"0.00002060600000","REF_FRAME":"TEME","TIME_SYSTEM":"UTC","MEAN_MOTION_DDOT":"0.0000000000000","INCLINATION":"53.2173","PERIAPSIS":"538.048","ARG_OF_PERICENTER":"26.2936","MEAN_MOTION":"15.08837504","ELEMENT_SET_NO":"999","TLE_LINE2":"2 52301  53.2173  11.2927 0002465  26.2936 333.8181 15.08837504 35861","CENTER_NAME":"EARTH","COUNTRY_CODE":"US","MEAN_MOTION_DOT":"0.00000040","MEAN_ANOMALY":"333.8181","PERIOD":"95.438","RA_OF_ASC_NODE":"11.2927","REV_AT_EPOCH":"3586","ECCENTRICITY":"0.00024650","SEMIMAJOR_AXIS":"6917.888"},{"REF_FRAME":"TEME","BSTAR":"0.00061549000000","MEAN_MOTION_DDOT":"0.0000000000000","TIME_SYSTEM":"UTC","PERIAPSIS":"538.008","ARG_OF_PERICENTER":"45.2684","INCLINATION":"53.2185","MEAN_MOTION":"15.08862537","ELEMENT_SET_NO":"999","CENTER_NAME":"EARTH","TLE_LINE2":"2 52302  53.2185   1.6994 0002412  45.2684 314.8505 15.08862537 35981","COUNTRY_CODE":"US","MEAN_MOTION_DOT":"0.00009527","PERIOD":"95.436","MEAN_ANOMALY":"314.8505","RA_OF_ASC_NODE":"1.6994","ECCENTRICITY":"0.00024120","REV_AT_EPOCH":"3598","SEMIMAJOR_AXIS":"6917.812","SITE":"AFETR","RCS_SIZE":"LARGE","EPHEMERIS_TYPE":"0","OBJECT_ID":"2022-041AT","LAUNCH_DATE":"2022-04-21","OBJECT_NAME":"STARLINK-3564","NORAD_CAT_ID":"52302","FILE":"3694071","TLE_LINE1":"1 52302U 22041AT  22346.26864030  .00009527  00000-0  61549-3 0  9998","DECAY_DATE":null,"MEAN_ELEMENT_THEORY":"SGP4","CLASSIFICATION_TYPE":"U","GP_ID":"220170944","APOAPSIS":"541.345","OBJECT_TYPE":"PAYLOAD","EPOCH":"2022-12-12T06:26:50.521920"},{"OBJECT_ID":"2022-041AU","EPHEMERIS_TYPE":"0","RCS_SIZE":"LARGE","SITE":"AFETR","FILE":"3694392","NORAD_CAT_ID":"52303","LAUNCH_DATE":"2022-04-21","OBJECT_NAME":"STARLINK-3742","MEAN_ELEMENT_THEORY":"SGP4","DECAY_DATE":null,"TLE_LINE1":"1 52303U 22041AU  22346.54739487  .00001923  00000-0  13893-3 0  9998","OBJECT_TYPE":"PAYLOAD","EPOCH":"2022-12-12T13:08:14.916768","APOAPSIS":"541.643","GP_ID":"220176438","CLASSIFICATION_TYPE":"U","TIME_SYSTEM":"UTC","MEAN_MOTION_DDOT":"0.0000000000000","BSTAR":"0.00013893000000","REF_FRAME":"TEME","TLE_LINE2":"2 52303  53.2188  10.4578 0002731  30.2155 329.8995 15.08837174 37117","CENTER_NAME":"EARTH","ELEMENT_SET_NO":"999","MEAN_MOTION":"15.08837174","PERIAPSIS":"537.865","ARG_OF_PERICENTER":"30.2155","INCLINATION":"53.2188","MEAN_ANOMALY":"329.8995","PERIOD":"95.438","MEAN_MOTION_DOT":"0.00001923","COUNTRY_CODE":"US","SEMIMAJOR_AXIS":"6917.889","REV_AT_EPOCH":"3711","ECCENTRICITY":"0.00027310","RA_OF_ASC_NODE":"10.4578"},{"FILE":"3694071","NORAD_CAT_ID":"52304","LAUNCH_DATE":"2022-04-21","OBJECT_NAME":"STARLINK-3744","OBJECT_ID":"2022-041AV","EPHEMERIS_TYPE":"0","RCS_SIZE":"LARGE","SITE":"AFETR","EPOCH":"2022-12-12T06:21:32.370336","OBJECT_TYPE":"PAYLOAD","APOAPSIS":"540.818","GP_ID":"220170455","CLASSIFICATION_TYPE":"U","MEAN_ELEMENT_THEORY":"SGP4","DECAY_DATE":null,"TLE_LINE1":"1 52304U 22041AV  22346.26495799  .00005434  00000-0  35957-3 0  9999","TLE_LINE2":"2 52304  53.2185   1.7208 0001388   1.5235 358.5761 15.08803237 35981","CENTER_NAME":"EARTH","ELEMENT_SET_NO":"999","MEAN_MOTION":"15.08803237","PERIAPSIS":"538.898","INCLINATION":"53.2185","ARG_OF_PERICENTER":"1.5235","TIME_SYSTEM":"UTC","MEAN_MOTION_DDOT":"0.0000000000000","BSTAR":"0.00035957000000","REF_FRAME":"TEME","SEMIMAJOR_AXIS":"6917.993","REV_AT_EPOCH":"3598","ECCENTRICITY":"0.00013880","RA_OF_ASC_NODE":"1.7208","MEAN_ANOMALY":"358.5761","PERIOD":"95.440","MEAN_MOTION_DOT":"0.00005434","COUNTRY_CODE":"US"},{"OBJECT_NAME":"STARLINK-3724","LAUNCH_DATE":"2022-04-21","NORAD_CAT_ID":"52305","FILE":"3695286","RCS_SIZE":"LARGE","SITE":"AFETR","EPHEMERIS_TYPE":"0","OBJECT_ID":"2022-041AW","GP_ID":"220210051","CLASSIFICATION_TYPE":"U","APOAPSIS":"541.221","EPOCH":"2022-12-12T12:59:02.035392","OBJECT_TYPE":"PAYLOAD","TLE_LINE1":"1 52305U 22041AW  22346.54099578  .00002709  00000-0  18819-3 0  9996","DECAY_DATE":null,"MEAN_ELEMENT_THEORY":"SGP4","ARG_OF_PERICENTER":"35.4503","PERIAPSIS":"538.214","INCLINATION":"53.2168","MEAN_MOTION":"15.08849053","ELEMENT_SET_NO":"999","TLE_LINE2":"2 52305  53.2168  10.4931 0002173  35.4503 324.6633 15.08849053 35898","CENTER_NAME":"EARTH","BSTAR":"0.00018819000000","REF_FRAME":"TEME","TIME_SYSTEM":"UTC","MEAN_MOTION_DDOT":"0.0000000000000","RA_OF_ASC_NODE":"10.4931","REV_AT_EPOCH":"3589","ECCENTRICITY":"0.00021730","SEMIMAJOR_AXIS":"6917.853","COUNTRY_CODE":"US","MEAN_MOTION_DOT":"0.00002709","MEAN_ANOMALY":"324.6633","PERIOD":"95.437"},{"LAUNCH_DATE":"2022-04-21","OBJECT_NAME":"STARLINK-3747","NORAD_CAT_ID":"52306","FILE":"3694392","OBJECT_ID":"2022-041AX","SITE":"AFETR","RCS_SIZE":"LARGE","EPHEMERIS_TYPE":"0","APOAPSIS":"541.283","EPOCH":"2022-12-12T07:51:37.242432","OBJECT_TYPE":"PAYLOAD","CLASSIFICATION_TYPE":"U","GP_ID":"220176937","DECAY_DATE":null,"MEAN_ELEMENT_THEORY":"SGP4","TLE_LINE1":"1 52306U 22041AX  22346.32751438  .00000875  00000-0  73100-4 0  9990","ELEMENT_SET_NO":"999","CENTER_NAME":"EARTH","TLE_LINE2":"2 52306  53.2177   1.4333 0002219  32.7704 327.3425 15.08839099 37215","PERIAPSIS":"538.213","INCLINATION":"53.2177","ARG_OF_PERICENTER":"32.7704","MEAN_MOTION":"15.08839099","MEAN_MOTION_DDOT":"0.0000000000000","TIME_SYSTEM":"UTC","REF_FRAME":"TEME","BSTAR":"0.00007310000000","ECCENTRICITY":"0.00022190","REV_AT_EPOCH":"3721","SEMIMAJOR_AXIS":"6917.883","RA_OF_ASC_NODE":"1.4333","MEAN_MOTION_DOT":"0.00000875","PERIOD":"95.438","MEAN_ANOMALY":"327.3425","COUNTRY_CODE":"US"},{"MEAN_MOTION_DOT":"0.00000811","PERIOD":"95.438","MEAN_ANOMALY":"319.8930","COUNTRY_CODE":"US","ECCENTRICITY":"0.00024510","REV_AT_EPOCH":"3589","SEMIMAJOR_AXIS":"6917.888","RA_OF_ASC_NODE":"10.4992","MEAN_MOTION_DDOT":"0.0000000000000","TIME_SYSTEM":"UTC","REF_FRAME":"TEME","BSTAR":"0.00006905100000","ELEMENT_SET_NO":"999","CENTER_NAME":"EARTH","TLE_LINE2":"2 52307  53.2154  10.4992 0002451  40.2243 319.8930 15.08837499 35893","PERIAPSIS":"538.057","INCLINATION":"53.2154","ARG_OF_PERICENTER":"40.2243","MEAN_MOTION":"15.08837499","DECAY_DATE":null,"MEAN_ELEMENT_THEORY":"SGP4","TLE_LINE1":"1 52307U 22041AY  22346.54003442  .00000811  00000-0  69051-4 0  9990","APOAPSIS":"541.449","EPOCH":"2022-12-12T12:57:38.973888","OBJECT_TYPE":"PAYLOAD","CLASSIFICATION_TYPE":"U","GP_ID":"220209550","OBJECT_ID":"2022-041AY","SITE":"AFETR","RCS_SIZE":"LARGE","EPHEMERIS_TYPE":"0","LAUNCH_DATE":"2022-04-21","OBJECT_NAME":"STARLINK-3755","FILE":"3695286","NORAD_CAT_ID":"52307"},{"FILE":"3693664","NORAD_CAT_ID":"52308","LAUNCH_DATE":"2022-04-21","OBJECT_NAME":"STARLINK-3745","EPHEMERIS_TYPE":"0","SITE":"AFETR","RCS_SIZE":"LARGE","OBJECT_ID":"2022-041AZ","CLASSIFICATION_TYPE":"U","GP_ID":"220137615","EPOCH":"2022-12-12T12:27:10.909728","OBJECT_TYPE":"PAYLOAD","APOAPSIS":"541.403","TLE_LINE1":"1 52308U 22041AZ  22346.51887627 -.00000137  00000-0  95283-5 0  9992","MEAN_ELEMENT_THEORY":"SGP4","DECAY_DATE":null,"MEAN_MOTION":"15.08832211","PERIAPSIS":"538.135","ARG_OF_PERICENTER":"33.5581","INCLINATION":"53.2203","CENTER_NAME":"EARTH","TLE_LINE2":"2 52308  53.2203   0.5795 0002362  33.5581 326.5561 15.08832211 37244","ELEMENT_SET_NO":"999","REF_FRAME":"TEME","BSTAR":"0.00000952830000","MEAN_MOTION_DDOT":"0.0000000000000","TIME_SYSTEM":"UTC","RA_OF_ASC_NODE":"0.5795","SEMIMAJOR_AXIS":"6917.904","ECCENTRICITY":"0.00023620","REV_AT_EPOCH":"3724","COUNTRY_CODE":"US","PERIOD":"95.438","MEAN_ANOMALY":"326.5561","MEAN_MOTION_DOT":"-0.00000137"},{"CLASSIFICATION_TYPE":"U","GP_ID":"220210550","APOAPSIS":"541.270","EPOCH":"2022-12-12T12:32:28.681152","OBJECT_TYPE":"PAYLOAD","TLE_LINE1":"1 52309U 22041BA  22346.52255418  .00000596  00000-0  55540-4 0  9990","DECAY_DATE":null,"MEAN_ELEMENT_THEORY":"SGP4","LAUNCH_DATE":"2022-04-21","OBJECT_NAME":"STARLINK-3756","FILE":"3695286","NORAD_CAT_ID":"52309","SITE":"AFETR","RCS_SIZE":"LARGE","EPHEMERIS_TYPE":"0","OBJECT_ID":"2022-041BA","RA_OF_ASC_NODE":"0.5692","ECCENTRICITY":"0.00021890","REV_AT_EPOCH":"3724","SEMIMAJOR_AXIS":"6917.891","COUNTRY_CODE":"US","MEAN_MOTION_DOT":"0.00000596","PERIOD":"95.438","MEAN_ANOMALY":"331.5188","INCLINATION":"53.2190","PERIAPSIS":"538.242","ARG_OF_PERICENTER":"28.5924","MEAN_MOTION":"15.08836501","ELEMENT_SET_NO":"999","CENTER_NAME":"EARTH","TLE_LINE2":"2 52309  53.2190   0.5692 0002189  28.5924 331.5188 15.08836501 37245","REF_FRAME":"TEME","BSTAR":"0.00005554000000","MEAN_MOTION_DDOT":"0.0000000000000","TIME_SYSTEM":"UTC"}];
